{
    "type": "FeatureCollection",
    "features": [
        {
            "type": "Feature",
            "properties": {
                "name": "entrada cl. 58",
                "type": "entrance",
                "obstacle": "false",
                "routing": "allow"
            },
            "geometry": {
                "coordinates": [
                    [
                        [
                            -74.79123791660425,
                            10.994915577252982
                        ],
                        [
                            -74.79123791660425,
                            10.994827672371514
                        ],
                        [
                            -74.79117516206395,
                            10.994827672371514
                        ],
                        [
                            -74.79117516206395,
                            10.994915577252982
                        ],
                        [
                            -74.79123791660425,
                            10.994915577252982
                        ]
                    ]
                ],
                "type": "Polygon"
            },
            "id": 0
        },
        {
            "type": "Feature",
            "properties": {
                "name": "entrada cul",
                "type": "entrance",
                "obstacle": "false",
                "routing": "allow"
            },
            "geometry": {
                "coordinates": [
                    [
                        [
                            -74.7912539966354,
                            10.994646295639996
                        ],
                        [
                            -74.7912539966354,
                            10.994544024000987
                        ],
                        [
                            -74.7911848453394,
                            10.994544024000987
                        ],
                        [
                            -74.7911848453394,
                            10.994646295639996
                        ],
                        [
                            -74.7912539966354,
                            10.994646295639996
                        ]
                    ]
                ],
                "type": "Polygon"
            },
            "id": 1
        },
        {
            "type": "Feature",
            "properties": {
                "name": "Bloque 1",
                "type": "building",
                "obstacle": "true",
                "routing": "avoid"
            },
            "geometry": {
                "coordinates": [
                    [
                        [
                            -74.79112137168556,
                            10.994778898285062
                        ],
                        [
                            -74.79112137168556,
                            10.994567412964201
                        ],
                        [
                            -74.79098142931564,
                            10.994567412964201
                        ],
                        [
                            -74.79098142931564,
                            10.994778898285062
                        ],
                        [
                            -74.79112137168556,
                            10.994778898285062
                        ]
                    ]
                ],
                "type": "Polygon"
            },
            "id": 2
        },
        {
            "type": "Feature",
            "properties": {
                "name": "Plazoleta Principal",
                "type": "plaza",
                "obstacle": "false",
                "routing": "allow"
            },
            "geometry": {
                "coordinates": [
                    [
                        [
                            -74.79094596926102,
                            10.994779210136642
                        ],
                        [
                            -74.79094596926102,
                            10.994609279615545
                        ],
                        [
                            -74.79081296003335,
                            10.994609279615545
                        ],
                        [
                            -74.79081296003335,
                            10.994779210136642
                        ],
                        [
                            -74.79094596926102,
                            10.994779210136642
                        ]
                    ]
                ],
                "type": "Polygon"
            },
            "id": 3
        },
        {
            "type": "Feature",
            "properties": {
                "name": "Bloque 4",
                "type": "building",
                "obstacle": "true",
                "routing": "avoid"
            },
            "geometry": {
                "coordinates": [
                    [
                        [
                            -74.79074996398597,
                            10.994834485275959
                        ],
                        [
                            -74.79077813880541,
                            10.99435075815255
                        ],
                        [
                            -74.79065837845351,
                            10.99435006881697
                        ],
                        [
                            -74.79063106480586,
                            10.994826399379946
                        ],
                        [
                            -74.79074996398597,
                            10.994834485275959
                        ]
                    ]
                ],
                "type": "Polygon"
            },
            "id": 6
        },
        {
            "type": "Feature",
            "properties": {
                "name": "Bloque 8",
                "type": "building",
                "obstacle": "true",
                "routing": "avoid"
            },
            "geometry": {
                "coordinates": [
                    [
                        [
                            -74.790818472327,
                            10.995216582356804
                        ],
                        [
                            -74.79083094124937,
                            10.99501535866338
                        ],
                        [
                            -74.79073488104835,
                            10.995009165639985
                        ],
                        [
                            -74.79072075319102,
                            10.995207335602316
                        ],
                        [
                            -74.790818472327,
                            10.995216582356804
                        ]
                    ]
                ],
                "type": "Polygon"
            },
            "id": 6
        },
        {
            "type": "Feature",
            "properties": {
                "name": "Biblioteca CUC",
                "type": "building",
                "obstacle": "true",
                "routing": "avoid"
            },
            "geometry": {
                "coordinates": [
                    [
                        [
                            -74.7911123961294,
                            10.995025185682735
                        ],
                        [
                            -74.79111977766652,
                            10.994874318634572
                        ],
                        [
                            -74.79096850355307,
                            10.994865338214979
                        ],
                        [
                            -74.7909703379562,
                            10.995021107827952
                        ],
                        [
                            -74.7911123961294,
                            10.995025185682735
                        ]
                    ]
                ],
                "type": "Polygon"
            },
            "id": 6
        },
        {
            "type": "Feature",
            "properties": {
                "name": "Bloque 2",
                "type": "building",
                "obstacle": "true",
                "routing": "avoid"
            },
            "geometry": {
                "coordinates": [
                    [
                        [
                            -74.79096823149565,
                            10.995020164003776
                        ],
                        [
                            -74.79096618135023,
                            10.994865762423856
                        ],
                        [
                            -74.79074055592199,
                            10.994853187593563
                        ],
                        [
                            -74.79073424438471,
                            10.995006318483874
                        ],
                        [
                            -74.79096823149565,
                            10.995020164003776
                        ]
                    ]
                ],
                "type": "Polygon"
            },
            "id": 7
        },
        {
            "type": "Feature",
            "properties": {
                "name": "Cancha multiple",
                "type": "sports",
                "obstacle": "true",
                "routing": "avoid"
            },
            "geometry": {
                "coordinates": [
                    [
                        [
                            -74.79063786980961,
                            10.994646759722713
                        ],
                        [
                            -74.79043669091776,
                            10.99463299707331
                        ],
                        [
                            -74.79041082045597,
                            10.994970264173986
                        ],
                        [
                            -74.79061500231873,
                            10.994983082340156
                        ],
                        [
                            -74.79063786980961,
                            10.994646759722713
                        ]
                    ]
                ],
                "type": "Polygon"
            },
            "id": 8
        },
        {
            "type": "Feature",
            "properties": {
                "name": "baños hombres cancha",
                "type": "service",
                "obstacle": "true",
                "routing": "avoid"
            },
            "geometry": {
                "coordinates": [
                    [
                        [
                            -74.79044164865418,
                            10.995077908618782
                        ],
                        [
                            -74.79044827238287,
                            10.994990663669839
                        ],
                        [
                            -74.79040592460915,
                            10.994987730272314
                        ],
                        [
                            -74.79039930088045,
                            10.995074975222096
                        ],
                        [
                            -74.79044164865418,
                            10.995077908618782
                        ]
                    ]
                ],
                "type": "Polygon"
            },
            "id": 9
        },
        {
            "type": "Feature",
            "properties": {
                "name": "Bloque 6",
                "type": "building",
                "obstacle": "true",
                "routing": "avoid"
            },
            "geometry": {
                "coordinates": [
                    [
                        [
                            -74.79070439495634,
                            10.99509005194416
                        ],
                        [
                            -74.7906269440135,
                            10.99508808506826
                        ],
                        [
                            -74.7906234048283,
                            10.99521875327946
                        ],
                        [
                            -74.79069579320581,
                            10.995222022197822
                        ],
                        [
                            -74.79070439495634,
                            10.99509005194416
                        ]
                    ]
                ],
                "type": "Polygon"
            },
            "id": 10
        },
        {
            "type": "Feature",
            "properties": {
                "name": "Plazoleta coliseo",
                "type": "plaza",
                "obstacle": "false",
                "routing": "allow"
            },
            "geometry": {
                "coordinates": [
                    [
                        [
                            -74.79054296304892,
                            10.995125959999086
                        ],
                        [
                            -74.79055202203256,
                            10.99500535376751
                        ],
                        [
                            -74.7904498720334,
                            10.995001729454728
                        ],
                        [
                            -74.79044096054797,
                            10.995120292334747
                        ],
                        [
                            -74.79054296304892,
                            10.995125959999086
                        ]
                    ]
                ],
                "type": "Polygon"
            },
            "id": 11
        },
        {
            "type": "Feature",
            "properties": {
                "name": "Coliseo auditorio",
                "type": "building",
                "obstacle": "true",
                "routing": "avoid"
            },
            "geometry": {
                "coordinates": [
                    [
                        [
                            -74.79056105905504,
                            10.995285924987087
                        ],
                        [
                            -74.79057041537285,
                            10.995158239232481
                        ],
                        [
                            -74.79033967548399,
                            10.995137184813544
                        ],
                        [
                            -74.79032768472253,
                            10.995265225477013
                        ],
                        [
                            -74.79056105905504,
                            10.995285924987087
                        ]
                    ]
                ],
                "type": "Polygon"
            },
            "id": 12
        },
        {
            "type": "Feature",
            "properties": {
                "name": "Plazoleta central",
                "type": "plaza",
                "obstacle": "false",
                "routing": "allow"
            },
            "geometry": {
                "coordinates": [
                    [
                        [
                            -74.79055565807894,
                            10.9952869641169
                        ],
                        [
                            -74.79035320342581,
                            10.995272304959002
                        ],
                        [
                            -74.79041672997033,
                            10.995357692078358
                        ],
                        [
                            -74.7905475088861,
                            10.995311640840328
                        ],
                        [
                            -74.79055565807894,
                            10.9952869641169
                        ]
                    ]
                ],
                "type": "Polygon"
            },
            "id": 13
        },
        {
            "type": "Feature",
            "properties": {
                "name": "Bloque 5",
                "type": "building",
                "obstacle": "true",
                "routing": "avoid"
            },
            "geometry": {
                "coordinates": [
                    [
                        [
                            -74.79074532177353,
                            10.995536728842964
                        ],
                        [
                            -74.79075347052854,
                            10.995271594088535
                        ],
                        [
                            -74.79062119094093,
                            10.995265461007662
                        ],
                        [
                            -74.79060893183376,
                            10.995530782289038
                        ],
                        [
                            -74.79074532177353,
                            10.995536728842964
                        ]
                    ]
                ],
                "type": "Polygon"
            },
            "id": 14
        },
        {
            "type": "Feature",
            "properties": {
                "name": "Bloque 7",
                "type": "building",
                "obstacle": "true",
                "routing": "avoid"
            },
            "geometry": {
                "coordinates": [
                    [
                        [
                            -74.79093377893963,
                            10.99547165496763
                        ],
                        [
                            -74.79084208663996,
                            10.995356104339507
                        ],
                        [
                            -74.79077512732198,
                            10.995404760154074
                        ],
                        [
                            -74.79084002523174,
                            10.995536100763289
                        ],
                        [
                            -74.79093377893963,
                            10.99547165496763
                        ]
                    ]
                ],
                "type": "Polygon"
            },
            "id": 15
        },
        {
            "type": "Feature",
            "properties": {
                "name": "Bloque 9",
                "type": "building",
                "obstacle": "true",
                "routing": "avoid"
            },
            "geometry": {
                "coordinates": [
                    [
                        [
                            -74.79085429146151,
                            10.995562228245902
                        ],
                        [
                            -74.79081725846608,
                            10.99550762066282
                        ],
                        [
                            -74.79062694290364,
                            10.995658160840293
                        ],
                        [
                            -74.79066404693704,
                            10.995712328351885
                        ],
                        [
                            -74.79085429146151,
                            10.995562228245902
                        ]
                    ]
                ],
                "type": "Polygon"
            },
            "id": 16
        },
        {
            "type": "Feature",
            "properties": {
                "name": "Bloque 9 Baños",
                "type": "service",
                "obstacle": "true",
                "routing": "avoid"
            },
            "geometry": {
                "coordinates": [
                    [
                        [
                            -74.7906768604234,
                            10.995618688786877
                        ],
                        [
                            -74.7906216358455,
                            10.995544381953763
                        ],
                        [
                            -74.79059089119225,
                            10.99557124909829
                        ],
                        [
                            -74.7906273830902,
                            10.995655416528862
                        ],
                        [
                            -74.7906768604234,
                            10.995618688786877
                        ]
                    ]
                ],
                "type": "Polygon"
            },
            "id": 17
        },
        {
            "type": "Feature",
            "properties": {
                "name": "Baños de hombres central",
                "type": "service",
                "obstacle": "true",
                "routing": "avoid"
            },
            "geometry": {
                "coordinates": [
                    [
                        [
                            -74.79060128315517,
                            10.995700516710244
                        ],
                        [
                            -74.79055182806808,
                            10.995637104971138
                        ],
                        [
                            -74.79050132259815,
                            10.995681126970794
                        ],
                        [
                            -74.79055105770735,
                            10.995740165872803
                        ],
                        [
                            -74.79060128315517,
                            10.995700516710244
                        ]
                    ]
                ],
                "type": "Polygon"
            },
            "id": 18
        },
        {
            "type": "Feature",
            "properties": {
                "name": "Creatio lab",
                "type": "building",
                "obstacle": "true",
                "routing": "avoid"
            },
            "geometry": {
                "coordinates": [
                    [
                        [
                            -74.7905497092272,
                            10.995741913803982
                        ],
                        [
                            -74.79049899433556,
                            10.995682691899162
                        ],
                        [
                            -74.79036997227448,
                            10.995787050472302
                        ],
                        [
                            -74.79041454079027,
                            10.995851284988674
                        ],
                        [
                            -74.7905497092272,
                            10.995741913803982
                        ]
                    ]
                ],
                "type": "Polygon"
            },
            "id": 19
        },
        {
            "type": "Feature",
            "properties": {
                "name": "Baños de mujeres central",
                "type": "service",
                "obstacle": "true",
                "routing": "avoid"
            },
            "geometry": {
                "coordinates": [
                    [
                        [
                            -74.79041159719718,
                            10.995850737764513
                        ],
                        [
                            -74.790367246063,
                            10.995788042843287
                        ],
                        [
                            -74.790306406854,
                            10.995838176845865
                        ],
                        [
                            -74.79035535862894,
                            10.99589779995452
                        ],
                        [
                            -74.79041159719718,
                            10.995850737764513
                        ]
                    ]
                ],
                "type": "Polygon"
            },
            "id": 20
        },
        {
            "type": "Feature",
            "properties": {
                "name": "Central",
                "type": "building",
                "obstacle": "true",
                "routing": "avoid"
            },
            "geometry": {
                "coordinates": [
                    [
                        [
                            -74.79051524786077,
                            10.995609506605234
                        ],
                        [
                            -74.79042408317206,
                            10.99549013098654
                        ],
                        [
                            -74.79019484147443,
                            10.99565511540618
                        ],
                        [
                            -74.79028316088574,
                            10.995773923902945
                        ],
                        [
                            -74.79051524786077,
                            10.995609506605234
                        ]
                    ]
                ],
                "type": "Polygon"
            },
            "id": 21
        },
        {
            "type": "Feature",
            "properties": {
                "name": "Enfermeria",
                "type": "building",
                "obstacle": "true",
                "routing": "avoid"
            },
            "geometry": {
                "coordinates": [
                    [
                        [
                            -74.79042595332223,
                            10.995395657242227
                        ],
                        [
                            -74.79035438426047,
                            10.99530685533783
                        ],
                        [
                            -74.79025403214249,
                            10.995381015365751
                        ],
                        [
                            -74.79032602493349,
                            10.995469554480465
                        ],
                        [
                            -74.79042595332223,
                            10.995395657242227
                        ]
                    ]
                ],
                "type": "Polygon"
            },
            "id": 22
        },
        {
            "type": "Feature",
            "properties": {
                "name": "salones CUL",
                "type": "building",
                "obstacle": "true",
                "routing": "avoid"
            },
            "geometry": {
                "coordinates": [
                    [
                        [
                            -74.79032311158706,
                            10.995471512670221
                        ],
                        [
                            -74.79025133805015,
                            10.995384503572936
                        ],
                        [
                            -74.7900657082279,
                            10.99552269516748
                        ],
                        [
                            -74.79013096711687,
                            10.995613284866536
                        ],
                        [
                            -74.79032311158706,
                            10.995471512670221
                        ]
                    ]
                ],
                "type": "Polygon"
            },
            "id": 23
        },
        {
            "type": "Feature",
            "properties": {
                "name": "CED",
                "type": "building",
                "obstacle": "true",
                "routing": "avoid"
            },
            "geometry": {
                "coordinates": [
                    [
                        [
                            -74.79014707982792,
                            10.995460451560334
                        ],
                        [
                            -74.78998643623115,
                            10.995301554898248
                        ],
                        [
                            -74.78991699710627,
                            10.995341528197727
                        ],
                        [
                            -74.79006349170989,
                            10.995522014227134
                        ],
                        [
                            -74.79014707982792,
                            10.995460451560334
                        ]
                    ]
                ],
                "type": "Polygon"
            },
            "id": 24
        },
        {
            "type": "Feature",
            "properties": {
                "name": "Parqueaderos zona sur",
                "type": "parking",
                "obstacle": "true",
                "routing": "avoid"
            },
            "geometry": {
                "coordinates": [
                    [
                        [
                            -74.78987162207503,
                            10.995391345659314
                        ],
                        [
                            -74.78977574055914,
                            10.99636890001787
                        ],
                        [
                            -74.79036750464022,
                            10.995946393070767
                        ],
                        [
                            -74.78987162207503,
                            10.995391345659314
                        ]
                    ]
                ],
                "type": "Polygon"
            },
            "id": 25
        },
        {
            "type": "Feature",
            "properties": {
                "name": "Bloque 10",
                "type": "building",
                "obstacle": "true",
                "routing": "avoid"
            },
            "geometry": {
                "coordinates": [
                    [
                        [
                            -74.7898838249805,
                            10.995086751582718
                        ],
                        [
                            -74.78947422906938,
                            10.995059054832382
                        ],
                        [
                            -74.789456305527,
                            10.995218695126425
                        ],
                        [
                            -74.78984300797755,
                            10.995235661612739
                        ],
                        [
                            -74.7898838249805,
                            10.995086751582718
                        ]
                    ]
                ],
                "type": "Polygon"
            },
            "id": 26
        },
        {
            "type": "Feature",
            "properties": {
                "name": "Plazoleta bloque 10 y 11",
                "type": "plaza",
                "obstacle": "false",
                "routing": "allow"
            },
            "geometry": {
                "coordinates": [
                    [
                        [
                            -74.78945622886552,
                            10.995067693255294
                        ],
                        [
                            -74.78928373514943,
                            10.995059576830329
                        ],
                        [
                            -74.7892760499616,
                            10.995204517138234
                        ],
                        [
                            -74.78943798597231,
                            10.995208931820969
                        ],
                        [
                            -74.78945622886552,
                            10.995067693255294
                        ]
                    ]
                ],
                "type": "Polygon"
            },
            "id": 27
        },
        {
            "type": "Feature",
            "properties": {
                "name": "Gimnasio y salon de baile",
                "type": "building",
                "obstacle": "true",
                "routing": "avoid"
            },
            "geometry": {
                "coordinates": [
                    [
                        [
                            -74.78939205407028,
                            10.995400473954348
                        ],
                        [
                            -74.7893339143766,
                            10.995390722669612
                        ],
                        [
                            -74.78932010900488,
                            10.995668151668582
                        ],
                        [
                            -74.78937943822481,
                            10.995677270782522
                        ],
                        [
                            -74.78939205407028,
                            10.995400473954348
                        ]
                    ]
                ],
                "type": "Polygon"
            },
            "id": 28
        },
        {
            "type": "Feature",
            "properties": {
                "name": "Container de comida",
                "type": "service",
                "obstacle": "true",
                "routing": "avoid"
            },
            "geometry": {
                "coordinates": [
                    [
                        [
                            -74.7892960367004,
                            10.995384695147706
                        ],
                        [
                            -74.7892380683006,
                            10.995384317599289
                        ],
                        [
                            -74.78923684380713,
                            10.995435500272194
                        ],
                        [
                            -74.78929120907442,
                            10.995439900016905
                        ],
                        [
                            -74.7892960367004,
                            10.995384695147706
                        ]
                    ]
                ],
                "type": "Polygon"
            },
            "id": 29
        },
        {
            "type": "Feature",
            "properties": {
                "name": "Salones container",
                "type": "building",
                "obstacle": "true",
                "routing": "avoid"
            },
            "geometry": {
                "coordinates": [
                    [
                        [
                            -74.78931805767245,
                            10.995443907934145
                        ],
                        [
                            -74.78926482643021,
                            10.995443458638405
                        ],
                        [
                            -74.7892435720779,
                            10.995599603422377
                        ],
                        [
                            -74.78930173859428,
                            10.995609429111823
                        ],
                        [
                            -74.78931805767245,
                            10.995443907934145
                        ]
                    ]
                ],
                "type": "Polygon"
            },
            "id": 30
        },
        {
            "type": "Feature",
            "properties": {
                "name": "Parqueaderos carros y motos Zona norte",
                "type": "parking",
                "obstacle": "true",
                "routing": "avoid"
            },
            "geometry": {
                "coordinates": [
                    [
                        [
                            -74.78923301144741,
                            10.99539086306521
                        ],
                        [
                            -74.78918132845277,
                            10.995392569271104
                        ],
                        [
                            -74.78915577850802,
                            10.99566019100601
                        ],
                        [
                            -74.78922261030333,
                            10.995659457549209
                        ],
                        [
                            -74.78923301144741,
                            10.99539086306521
                        ]
                    ]
                ],
                "type": "Polygon"
            },
            "id": 31
        },
        {
            "type": "Feature",
            "properties": {
                "name": "Bloque 11",
                "type": "building",
                "obstacle": "true",
                "routing": "avoid"
            },
            "geometry": {
                "coordinates": [
                    [
                        [
                            -74.78927630168832,
                            10.995049380373416
                        ],
                        [
                            -74.78876887764098,
                            10.995040389284242
                        ],
                        [
                            -74.78876153811147,
                            10.995220938367154
                        ],
                        [
                            -74.78926408791052,
                            10.995208769160541
                        ],
                        [
                            -74.78927630168832,
                            10.995049380373416
                        ]
                    ]
                ],
                "type": "Polygon"
            },
            "id": 32
        },
        {
            "type": "Feature",
            "properties": {
                "name": "Parqueadero carros y motos zona norte",
                "type": "parking",
                "obstacle": "true",
                "routing": "avoid"
            },
            "geometry": {
                "coordinates": [
                    [
                        [
                            -74.78909128847037,
                            10.995390266671734
                        ],
                        [
                            -74.78898509343067,
                            10.99539875372011
                        ],
                        [
                            -74.78894079303981,
                            10.995674092474431
                        ],
                        [
                            -74.78909307208573,
                            10.995699546816113
                        ],
                        [
                            -74.78909128847037,
                            10.995390266671734
                        ]
                    ]
                ],
                "type": "Polygon"
            },
            "id": 33
        },
        {
            "type": "Feature",
            "properties": {
                "name": "Rampa bloque 12",
                "type": "path",
                "obstacle": "false",
                "routing": "allow"
            },
            "geometry": {
                "coordinates": [
                    [
                        [
                            -74.78916313453163,
                            10.995365274867595
                        ],
                        [
                            -74.78912499787577,
                            10.99536574155347
                        ],
                        [
                            -74.78909822126496,
                            10.99570995900038
                        ],
                        [
                            -74.78914972832453,
                            10.995714829387211
                        ],
                        [
                            -74.78916313453163,
                            10.995365274867595
                        ]
                    ]
                ],
                "type": "Polygon"
            },
            "id": 34
        },
        {
            "type": "Feature",
            "properties": {
                "name": "Bloque 12",
                "type": "building",
                "obstacle": "true",
                "routing": "avoid"
            },
            "geometry": {
                "coordinates": [
                    [
                        [
                            -74.7893416562805,
                            10.995734488745953
                        ],
                        [
                            -74.78894062723201,
                            10.995702263099759
                        ],
                        [
                            -74.78894173773618,
                            10.995875171899286
                        ],
                        [
                            -74.78933371653373,
                            10.995894331422917
                        ],
                        [
                            -74.7893416562805,
                            10.995734488745953
                        ]
                    ]
                ],
                "type": "Polygon"
            },
            "id": 35
        },
        {
            "type": "Feature",
            "properties": {
                "name": "Containers",
                "type": "building",
                "obstacle": "true",
                "routing": "avoid"
            },
            "geometry": {
                "coordinates": [
                    [
                        [
                            -74.78893248155848,
                            10.995430713833613
                        ],
                        [
                            -74.78886134607109,
                            10.995429776068832
                        ],
                        [
                            -74.78883656928433,
                            10.99580253846132
                        ],
                        [
                            -74.78889651795643,
                            10.995808057047228
                        ],
                        [
                            -74.78893248155848,
                            10.995430713833613
                        ]
                    ]
                ],
                "type": "Polygon"
            },
            "id": 36
        },
        {
            "type": "Feature",
            "properties": {
                "name": "Multidiomas",
                "type": "building",
                "obstacle": "true",
                "routing": "avoid"
            },
            "geometry": {
                "coordinates": [
                    [
                        [
                            -74.78877683475804,
                            10.99550859274359
                        ],
                        [
                            -74.78872262663302,
                            10.99543973723216
                        ],
                        [
                            -74.78866597917042,
                            10.995447979589926
                        ],
                        [
                            -74.78864198395874,
                            10.995794473515659
                        ],
                        [
                            -74.78876492601222,
                            10.995798593867775
                        ],
                        [
                            -74.78877683475804,
                            10.99550859274359
                        ]
                    ]
                ],
                "type": "Polygon"
            },
            "id": 37
        },
        {
            "type": "Feature",
            "properties": {
                "name": "Baños multidiomas",
                "type": "service",
                "obstacle": "true",
                "routing": "avoid"
            },
            "geometry": {
                "coordinates": [
                    [
                        [
                            -74.78883114172127,
                            10.995875705995829
                        ],
                        [
                            -74.78876825647502,
                            10.99580109017549
                        ],
                        [
                            -74.78870410602798,
                            10.99580791522483
                        ],
                        [
                            -74.78869546582438,
                            10.995915400195187
                        ],
                        [
                            -74.78882941106079,
                            10.995923229299748
                        ],
                        [
                            -74.78883114172127,
                            10.995875705995829
                        ]
                    ]
                ],
                "type": "Polygon"
            },
            "id": 38
        }
    ]
}