{"type":"FeatureCollection","features":[{"type":"Feature","properties":{"type":"sidewalk"},"geometry":{"coordinates":[[-74.79077758240265,10.994833572574876],[-74.79072349227656,10.994855750858626],[-74.79067252779437,10.99491577115262],[-74.79066628441926,10.995035282191878],[-74.79059136391717,10.995043453885017],[-74.79058303941639,10.995260003673096],[-74.7905715933568,10.99530699098871],[-74.79059399656323,10.995442547372413],[-74.79051876330651,10.995469480446559],[-74.79038758837551,10.99549058080364],[-74.79034265898736,10.995506888956541],[-74.79023485553722,10.995579488779768],[-74.79013642715772,10.995646185780515],[-74.78998019871932,10.995454353770057],[-74.78990117123409,10.995359059026242],[-74.78977387453222,10.995325383161187],[-74.7896475735136,10.99528043356463],[-74.78952374656845,10.995278390826755],[-74.78929690393656,10.995306991728171],[-74.78906826598316,10.99529831959292],[-74.78877559374547,10.995293979718255],[-74.78873261755746,10.995294323064623],[-74.78873927121843,10.995136330322588],[-74.78865331884236,10.995137017057402]],"type":"LineString"}},{"type":"Feature","properties":{"type":"sidewalk"},"geometry":{"coordinates":[[-74.78926561402938,10.995311063050565],[-74.78926493649001,10.99540288080982]],"type":"LineString"}},{"type":"Feature","properties":{"type":"sidewalk"},"geometry":{"coordinates":[[-74.7905239716985,10.995468106993414],[-74.79058821227561,10.99552801518928],[-74.79068617915605,10.995569005002139]],"type":"LineString"}},{"type":"Feature","properties":{"type":"sidewalk"},"geometry":{"coordinates":[[-74.79120945807156,10.994597074800097],[-74.79115534881988,10.9946001391896],[-74.79114077303096,10.994855563137278],[-74.7909711626571,10.994845846297899],[-74.79077863089083,10.994834083942806]],"type":"LineString"}},{"type":"Feature","properties":{"type":"sidewalk"},"geometry":{"coordinates":[[-74.7908860089399,10.994810307597078],[-74.79088769283965,10.994882488190044]],"type":"LineString"}},{"type":"Feature","properties":{"type":"sidewalk"},"geometry":{"coordinates":[[-74.79066641296494,10.995025192109011],[-74.79078415080014,10.995035243237837]],"type":"LineString"}},{"type":"Feature","properties":{"type":"sidewalk"},"geometry":{"coordinates":[[-74.79071986566132,10.995030586179737],[-74.79071022113982,10.99523490068286],[-74.7907843074527,10.995243736589927],[-74.79078292234725,10.995337533441656],[-74.79075938090719,10.995385791063896],[-74.79075850125697,10.995516051122948],[-74.79075157730259,10.995542558818954],[-74.79068441494408,10.995571785249354],[-74.79071972711152,10.995613245995301]],"type":"LineString"}},{"type":"Feature","properties":{"type":"sidewalk"},"geometry":{"coordinates":[[-74.79077336357366,10.995360125955273],[-74.79082953851898,10.9954099084772]],"type":"LineString"}},{"type":"Feature","properties":{"type":"sidewalk"},"geometry":{"coordinates":[[-74.7905227007136,10.995465471724401],[-74.7905448766899,10.995619927040153],[-74.79042871681602,10.995691453298733],[-74.79047201276917,10.995745357135633]],"type":"LineString"}},{"type":"Feature","properties":{"type":"sidewalk"},"geometry":{"coordinates":[[-74.79122301193678,10.994858700713621],[-74.79114181449556,10.99485467665302],[-74.79115771241852,10.994598664291885]],"type":"LineString"}},{"type":"Feature","properties":{"type":"sidewalk"},"geometry":{"coordinates":[[-74.79104841298636,10.994810082541974],[-74.79104841298636,10.994874309497277],[-74.79104907722926,10.99476346093661]],"type":"LineString"}},{"type":"Feature","properties":{"type":"sidewalk"},"geometry":{"coordinates":[[-74.79088589194535,10.994810496626712],[-74.79088454719255,10.994756703803503]],"type":"LineString"}},{"type":"Feature","properties":{"type":"sidewalk"},"geometry":{"coordinates":[[-74.79077727022457,10.994833419805303],[-74.79077781824064,10.994726223732485],[-74.79071540801762,10.994720689834509]],"type":"LineString"}},{"type":"Feature","properties":{"type":"sidewalk"},"geometry":{"coordinates":[[-74.79066976997088,10.994958965776235],[-74.7906441231039,10.994958775067694],[-74.7905857216769,10.994953560403204]],"type":"LineString"}},{"type":"Feature","properties":{"type":"sidewalk"},"geometry":{"coordinates":[[-74.79059273478173,10.99504312956519],[-74.7905872257525,10.99499253079675],[-74.7904907704772,10.994986801789537],[-74.79048801596257,10.995014342423886]],"type":"LineString"}},{"type":"Feature","properties":{"type":"sidewalk"},"geometry":{"coordinates":[[-74.79058747944957,10.995146302693882],[-74.79065048743541,10.995148341749996]],"type":"LineString"}},{"type":"Feature","properties":{"type":"sidewalk"},"geometry":{"coordinates":[[-74.79058817184503,10.99514698237924],[-74.79048223534191,10.995140185524619],[-74.79048154294648,10.995170091681032]],"type":"LineString"}},{"type":"Feature","properties":{"type":"sidewalk"},"geometry":{"coordinates":[[-74.79058379778223,10.995243790887997],[-74.79071234471989,10.99523586882134]],"type":"LineString"}},{"type":"Feature","properties":{"type":"sidewalk"},"geometry":{"coordinates":[[-74.7907827260644,10.99531723639197],[-74.79071796883636,10.995318768162193]],"type":"LineString"}},{"type":"Feature","properties":{"type":"sidewalk"},"geometry":{"coordinates":[[-74.7907738946532,10.995360456174566],[-74.79077221827217,10.995359468810165],[-74.79077573867126,10.995362101780856]],"type":"LineString"}},{"type":"Feature","properties":{"type":"sidewalk"},"geometry":{"coordinates":[[-74.79075121121319,10.995542682275115],[-74.79078524554095,10.99556473256196]],"type":"LineString"}},{"type":"Feature","properties":{"type":"sidewalk"},"geometry":{"coordinates":[[-74.79031227347859,10.995529556862678],[-74.79024606217246,10.995452605792664]],"type":"LineString"}},{"type":"Feature","properties":{"type":"sidewalk"},"geometry":{"coordinates":[[-74.78963979718368,10.995279100189578],[-74.78965048210023,10.99517537787196]],"type":"LineString"}},{"type":"Feature","properties":{"type":"sidewalk"},"geometry":{"coordinates":[[-74.78936673736285,10.995300808535589],[-74.78937386064007,10.995164454479607]],"type":"LineString"}},{"type":"Feature","properties":{"type":"sidewalk"},"geometry":{"coordinates":[[-74.78902600726573,10.995297312278566],[-74.78902363284,10.995185432030581]],"type":"LineString"}},{"type":"Feature","properties":{"type":"sidewalk"},"geometry":{"coordinates":[[-74.78880290351678,10.995294374798604],[-74.78880068021303,10.995480763376648],[-74.7888016364708,10.995612526658476],[-74.78875709869972,10.995610313400576]],"type":"LineString"}},{"type":"Feature","properties":{"type":"sidewalk"},"geometry":{"coordinates":[[-74.7888695724207,10.995295564076713],[-74.78884519842326,10.995532558889565],[-74.78888492964808,10.995532049743034]],"type":"LineString"}},{"type":"Feature","properties":{"type":"sidewalk"},"geometry":{"coordinates":[[-74.78901650258473,10.995298147229306],[-74.78901825689054,10.995491022563698]],"type":"LineString"}},{"type":"Feature","properties":{"type":"sidewalk"},"geometry":{"coordinates":[[-74.78926567357597,10.995305737789607],[-74.78926567357597,10.995317600006771]],"type":"LineString"}},{"type":"Feature","properties":{"type":"sidewalk"},"geometry":{"coordinates":[[-74.78935797859292,10.99539837156945],[-74.7893541807492,10.995299745715258]],"type":"LineString"}},{"type":"Feature","properties":{"type":"sidewalk"},"geometry":{"coordinates":[[-74.7891485636307,10.995302005910787],[-74.78913039183249,10.995780489422955]],"type":"LineString"}},{"type":"Feature","properties":{"type":"sidewalk"},"geometry":{"coordinates":[[-74.79057022066209,10.995308943101662],[-74.79060094847571,10.995435392965149],[-74.7904597996928,10.99547479253171],[-74.79039522783464,10.995486866646466],[-74.79033473291784,10.995508278992617],[-74.79039598085129,10.99556498656763]],"type":"LineString"}},{"type":"Feature","properties":{"type":"sidewalk"},"geometry":{"coordinates":[[-74.79050897272862,10.995639622678326],[-74.7905554366783,10.995686270237158]],"type":"LineString"}},{"type":"Feature","properties":{"type":"sidewalk"},"geometry":{"coordinates":[[-74.7904276608172,10.995691453298733],[-74.7903157249387,10.995768162601564],[-74.79037169287795,10.995829322707323]],"type":"LineString"}}]}